CCSDS_OMM_VERS = 2.0
CREATION_DATE  = 
ORIGINATOR     = 

OBJECT_NAME    = PRC TEST SPACECRAFT 4
OBJECT_ID      = 2026-024A
CENTER_NAME    = EARTH
REF_FRAME      = TEME
TIME_SYSTEM    = UTC
MEAN_ELEMENT_THEORY = SGP/SGP4

EPOCH          = 2026-02-15T06:03:44.848224
MEAN_MOTION    = 14.91673886
ECCENTRICITY   = .00061869
INCLINATION    = 49.9852
RA_OF_ASC_NODE = 128.0964
ARG_OF_PERICENTER = 273.6684
MEAN_ANOMALY   = 86.3550

EPHEMERIS_TYPE = 0
CLASSIFICATION_TYPE = U
NORAD_CAT_ID   = 67689
ELEMENT_SET_NO = 999
REV_AT_EPOCH   = 123
BSTAR          = .66304302E-4
MEAN_MOTION_DOT = .43E-5
MEAN_MOTION_DDOT = 0

CCSDS_OMM_VERS = 2.0
CREATION_DATE  = 
ORIGINATOR     = 

OBJECT_NAME    = CZ-2F R/B
OBJECT_ID      = 2026-024B
CENTER_NAME    = EARTH
REF_FRAME      = TEME
TIME_SYSTEM    = UTC
MEAN_ELEMENT_THEORY = SGP/SGP4

EPOCH          = 2026-02-12T16:27:55.437984
MEAN_MOTION    = 15.33223548
ECCENTRICITY   = .01773338
INCLINATION    = 49.9859
RA_OF_ASC_NODE = 139.9043
ARG_OF_PERICENTER = 171.2576
MEAN_ANOMALY   = 189.1542

EPHEMERIS_TYPE = 0
CLASSIFICATION_TYPE = U
NORAD_CAT_ID   = 67690
ELEMENT_SET_NO = 999
REV_AT_EPOCH   = 85
BSTAR          = .200431E-3
MEAN_MOTION_DOT = .10419E-3
MEAN_MOTION_DDOT = 0

CCSDS_OMM_VERS = 2.0
CREATION_DATE  = 
ORIGINATOR     = 

OBJECT_NAME    = CZ-2F DEB
OBJECT_ID      = 2026-024C
CENTER_NAME    = EARTH
REF_FRAME      = TEME
TIME_SYSTEM    = UTC
MEAN_ELEMENT_THEORY = SGP/SGP4

EPOCH          = 2026-02-15T05:06:21.064320
MEAN_MOTION    = 15.66162313
ECCENTRICITY   = .02549925
INCLINATION    = 49.9092
RA_OF_ASC_NODE = 125.5375
ARG_OF_PERICENTER = 188.7329
MEAN_ANOMALY   = 170.9163

EPHEMERIS_TYPE = 0
CLASSIFICATION_TYPE = U
NORAD_CAT_ID   = 67691
ELEMENT_SET_NO = 999
REV_AT_EPOCH   = 125
BSTAR          = .91309478E-3
MEAN_MOTION_DOT = .67847E-2
MEAN_MOTION_DDOT = .10289926E-4

CCSDS_OMM_VERS = 2.0
CREATION_DATE  = 
ORIGINATOR     = 

OBJECT_NAME    = CZ-2F DEB
OBJECT_ID      = 2026-024D
CENTER_NAME    = EARTH
REF_FRAME      = TEME
TIME_SYSTEM    = UTC
MEAN_ELEMENT_THEORY = SGP/SGP4

EPOCH          = 2026-02-12T11:20:23.345088
MEAN_MOTION    = 15.21014172
ECCENTRICITY   = .02444636
INCLINATION    = 50.2497
RA_OF_ASC_NODE = 141.4689
ARG_OF_PERICENTER = 185.6574
MEAN_ANOMALY   = 174.1612

EPHEMERIS_TYPE = 0
CLASSIFICATION_TYPE = U
NORAD_CAT_ID   = 67692
ELEMENT_SET_NO = 999
REV_AT_EPOCH   = 82
BSTAR          = .18236751E-3
MEAN_MOTION_DOT = .896E-4
MEAN_MOTION_DDOT = 0

CCSDS_OMM_VERS = 2.0
CREATION_DATE  = 
ORIGINATOR     = 

OBJECT_NAME    = STARLINK-36748
OBJECT_ID      = 2026-025A
CENTER_NAME    = EARTH
REF_FRAME      = TEME
TIME_SYSTEM    = UTC
MEAN_ELEMENT_THEORY = SGP/SGP4

EPOCH          = 2026-02-15T06:00:02.000160
MEAN_MOTION    = 16.01479484
ECCENTRICITY   = .00015046
INCLINATION    = 97.2805
RA_OF_ASC_NODE = 156.4977
ARG_OF_PERICENTER = 55.9753
MEAN_ANOMALY   = 275.9306

EPHEMERIS_TYPE = 0
CLASSIFICATION_TYPE = U
NORAD_CAT_ID   = 67693
ELEMENT_SET_NO = 999
REV_AT_EPOCH   = 224
BSTAR          = -.22382838E-2
MEAN_MOTION_DOT = -.1227975E-1
MEAN_MOTION_DDOT = .48742026E-3

CCSDS_OMM_VERS = 2.0
CREATION_DATE  = 
ORIGINATOR     = 

OBJECT_NAME    = STARLINK-36753
OBJECT_ID      = 2026-025B
CENTER_NAME    = EARTH
REF_FRAME      = TEME
TIME_SYSTEM    = UTC
MEAN_ELEMENT_THEORY = SGP/SGP4

EPOCH          = 2026-02-15T06:00:02.000160
MEAN_MOTION    = 16.02141512
ECCENTRICITY   = .00014814
INCLINATION    = 97.2800
RA_OF_ASC_NODE = 156.5021
ARG_OF_PERICENTER = 57.9016
MEAN_ANOMALY   = 284.0561

EPHEMERIS_TYPE = 0
CLASSIFICATION_TYPE = U
NORAD_CAT_ID   = 67694
ELEMENT_SET_NO = 999
REV_AT_EPOCH   = 240
BSTAR          = -.21173274E-2
MEAN_MOTION_DOT = -.1207157E-1
MEAN_MOTION_DDOT = .4758481E-3

CCSDS_OMM_VERS = 2.0
CREATION_DATE  = 
ORIGINATOR     = 

OBJECT_NAME    = STARLINK-36750
OBJECT_ID      = 2026-025C
CENTER_NAME    = EARTH
REF_FRAME      = TEME
TIME_SYSTEM    = UTC
MEAN_ELEMENT_THEORY = SGP/SGP4

EPOCH          = 2026-02-15T06:00:02.000160
MEAN_MOTION    = 16.01720704
ECCENTRICITY   = .00013227
INCLINATION    = 97.2802
RA_OF_ASC_NODE = 156.4991
ARG_OF_PERICENTER = 62.4201
MEAN_ANOMALY   = 273.1537

EPHEMERIS_TYPE = 0
CLASSIFICATION_TYPE = U
NORAD_CAT_ID   = 67695
ELEMENT_SET_NO = 999
REV_AT_EPOCH   = 224
BSTAR          = -.2184871E-2
MEAN_MOTION_DOT = -.1215552E-1
MEAN_MOTION_DDOT = .47965973E-3

CCSDS_OMM_VERS = 2.0
CREATION_DATE  = 
ORIGINATOR     = 

OBJECT_NAME    = STARLINK-36401
OBJECT_ID      = 2026-025D
CENTER_NAME    = EARTH
REF_FRAME      = TEME
TIME_SYSTEM    = UTC
MEAN_ELEMENT_THEORY = SGP/SGP4

EPOCH          = 2026-02-15T06:00:02.000160
MEAN_MOTION    = 16.01918806
ECCENTRICITY   = .00014476
INCLINATION    = 97.2801
RA_OF_ASC_NODE = 156.5004
ARG_OF_PERICENTER = 56.5135
MEAN_ANOMALY   = 282.0815

EPHEMERIS_TYPE = 0
CLASSIFICATION_TYPE = U
NORAD_CAT_ID   = 67696
ELEMENT_SET_NO = 999
REV_AT_EPOCH   = 224
BSTAR          = -.21465819E-2
MEAN_MOTION_DOT = -.1208113E-1
MEAN_MOTION_DDOT = .47532606E-3

CCSDS_OMM_VERS = 2.0
CREATION_DATE  = 
ORIGINATOR     = 

OBJECT_NAME    = STARLINK-36704
OBJECT_ID      = 2026-025E
CENTER_NAME    = EARTH
REF_FRAME      = TEME
TIME_SYSTEM    = UTC
MEAN_ELEMENT_THEORY = SGP/SGP4

EPOCH          = 2026-02-15T06:00:02.000160
MEAN_MOTION    = 16.02359332
ECCENTRICITY   = .00014228
INCLINATION    = 97.2797
RA_OF_ASC_NODE = 156.5035
ARG_OF_PERICENTER = 55.8369
MEAN_ANOMALY   = 289.4931

EPHEMERIS_TYPE = 0
CLASSIFICATION_TYPE = U
NORAD_CAT_ID   = 67697
ELEMENT_SET_NO = 999
REV_AT_EPOCH   = 224
BSTAR          = -.20671874E-2
MEAN_MOTION_DOT = -.119372E-1
MEAN_MOTION_DDOT = .4672739E-3

CCSDS_OMM_VERS = 2.0
CREATION_DATE  = 
ORIGINATOR     = 

OBJECT_NAME    = STARLINK-36697
OBJECT_ID      = 2026-025F
CENTER_NAME    = EARTH
REF_FRAME      = TEME
TIME_SYSTEM    = UTC
MEAN_ELEMENT_THEORY = SGP/SGP4

EPOCH          = 2026-02-15T06:00:02.000160
MEAN_MOTION    = 16.02519730
ECCENTRICITY   = .00015006
INCLINATION    = 97.2797
RA_OF_ASC_NODE = 156.5045
ARG_OF_PERICENTER = 54.5902
MEAN_ANOMALY   = 293.2410

EPHEMERIS_TYPE = 0
CLASSIFICATION_TYPE = U
NORAD_CAT_ID   = 67698
ELEMENT_SET_NO = 999
REV_AT_EPOCH   = 219
BSTAR          = -.20215346E-2
MEAN_MOTION_DOT = -.1178496E-1
MEAN_MOTION_DDOT = .45716217E-3

CCSDS_OMM_VERS = 2.0
CREATION_DATE  = 
ORIGINATOR     = 

OBJECT_NAME    = STARLINK-36716
OBJECT_ID      = 2026-025G
CENTER_NAME    = EARTH
REF_FRAME      = TEME
TIME_SYSTEM    = UTC
MEAN_ELEMENT_THEORY = SGP/SGP4

EPOCH          = 2026-02-15T06:00:02.000160
MEAN_MOTION    = 16.02726715
ECCENTRICITY   = .0001376
INCLINATION    = 97.2795
RA_OF_ASC_NODE = 156.5059
ARG_OF_PERICENTER = 55.5631
MEAN_ANOMALY   = 295.4374

EPHEMERIS_TYPE = 0
CLASSIFICATION_TYPE = U
NORAD_CAT_ID   = 67699
ELEMENT_SET_NO = 999
REV_AT_EPOCH   = 240
BSTAR          = -.19800723E-2
MEAN_MOTION_DOT = -.1168449E-1
MEAN_MOTION_DDOT = .45106387E-3

CCSDS_OMM_VERS = 2.0
CREATION_DATE  = 
ORIGINATOR     = 

OBJECT_NAME    = STARLINK-36712
OBJECT_ID      = 2026-025H
CENTER_NAME    = EARTH
REF_FRAME      = TEME
TIME_SYSTEM    = UTC
MEAN_ELEMENT_THEORY = SGP/SGP4

EPOCH          = 2026-02-15T06:00:02.000160
MEAN_MOTION    = 16.02939742
ECCENTRICITY   = .00014563
INCLINATION    = 97.2793
RA_OF_ASC_NODE = 156.5073
ARG_OF_PERICENTER = 44.2809
MEAN_ANOMALY   = 309.8049

EPHEMERIS_TYPE = 0
CLASSIFICATION_TYPE = U
NORAD_CAT_ID   = 67700
ELEMENT_SET_NO = 999
REV_AT_EPOCH   = 219
BSTAR          = -.19307557E-2
MEAN_MOTION_DOT = -.1153824E-1
MEAN_MOTION_DDOT = .44177681E-3

