PRC TEST SPACECRAFT 4   
1 67689U 26024A   26046.25260241  .00000430  00000+0  66304-4 0  9999
2 67689  49.9852 128.0964 0006186 273.6684  86.3550 14.91673886  1238
CZ-2F R/B               
1 67690U 26024B   26043.68605831  .00010419  00000+0  20043-3 0  9990
2 67690  49.9859 139.9043 0177333 171.2576 189.1542 15.33223548   855
CZ-2F DEB               
1 67691U 26024C   26046.21274380  .00678470  10290-4  91309-3 0  9991
2 67691  49.9092 125.5375 0254992 188.7329 170.9163 15.66162313  1250
CZ-2F DEB               
1 67692U 26024D   26043.47249242  .00008960  00000+0  18237-3 0  9999
2 67692  50.2497 141.4689 0244463 185.6574 174.1612 15.21014172   827
STARLINK-36748          
1 67693U 26025A   26046.25002315 -.01227975  48742-3 -22383-2 0  9995
2 67693  97.2805 156.4977 0001504  55.9753 275.9306 16.01479484  2241
STARLINK-36753          
1 67694U 26025B   26046.25002315 -.01207157  47585-3 -21173-2 0  9996
2 67694  97.2800 156.5021 0001481  57.9016 284.0561 16.02141512  2407
STARLINK-36750          
1 67695U 26025C   26046.25002315 -.01215552  47966-3 -21849-2 0  9998
2 67695  97.2802 156.4991 0001322  62.4201 273.1537 16.01720704  2245
STARLINK-36401          
1 67696U 26025D   26046.25002315 -.01208113  47533-3 -21466-2 0  9999
2 67696  97.2801 156.5004 0001447  56.5135 282.0815 16.01918806  2249
STARLINK-36704          
1 67697U 26025E   26046.25002315 -.01193720  46727-3 -20672-2 0  9999
2 67697  97.2797 156.5035 0001422  55.8369 289.4931 16.02359332  2246
STARLINK-36697          
1 67698U 26025F   26046.25002315 -.01178496  45716-3 -20215-2 0  9993
2 67698  97.2797 156.5045 0001500  54.5902 293.2410 16.02519730  2193
STARLINK-36716          
1 67699U 26025G   26046.25002315 -.01168449  45106-3 -19801-2 0  9993
2 67699  97.2795 156.5059 0001376  55.5631 295.4374 16.02726715  2408
STARLINK-36712          
1 67700U 26025H   26046.25002315 -.01153824  44178-3 -19308-2 0  9997
2 67700  97.2793 156.5073 0001456  44.2809 309.8049 16.02939742  2197
